     2.100          NAVIGATION                              RINEX VERSION / TYPE
fic2rin                                 07/04/2015 00:17:33 PGM / RUN BY / DATE
                                                            END OF HEADER
 3 15  7  3 16  0  0.0  .205403193831D-05  .545696821064D-11  .000000000000D+00
     .370000000000D+02  .309687500000D+02  .483162982820D-08  .502652251770D+00
     .169500708580D-05  .835794024169D-03  .538490712643D-05  .515364317513D+04
     .489600000000D+06 -.279396772385D-07 -.151479348937D+01  .122934579849D-06
     .958757545792D+00  .275343750000D+03 -.254248276514D+01 -.817569769348D-08
     .399302346831D-09  .100000000000D+01  .185100000000D+04  .000000000000D+00
     .240000000000D+01  .000000000000D+00  .186264514923D-08  .370000000000D+02
     .482406000000D+06  .400000000000D+01
 4 15  7  3 16  0  0.0 -.231261365116D-04 -.250111042988D-11  .000000000000D+00
     .600000000000D+02 -.320625000000D+02  .461769234542D-08 -.159460570036D+01
    -.173971056938D-05  .114605081035D-01  .120140612125D-04  .515367865944D+04
     .489600000000D+06  .331550836563D-06 -.257868254574D+01  .391155481339D-07
     .940417314876D+00  .136343750000D+03  .106873611943D+01 -.786782772661D-08
     .220723479733D-09  .100000000000D+01  .185100000000D+04  .000000000000D+00
     .240000000000D+01  .000000000000D+00 -.651925802231D-08  .600000000000D+02
     .482406000000D+06  .400000000000D+01
 5 15  7  3 16  0  0.0 -.222212634981D-03  .443378667114D-11  .000000000000D+00
     .620000000000D+02  .284687500000D+02  .520343102950D-08  .162776693427D+01
     .155903398991D-05  .417753902730D-02  .564195215702D-05  .515358036232D+04
     .489600000000D+06 -.242143869400D-07 -.152232133957D+01 -.130385160446D-07
     .945966621044D+00  .264687500000D+03  .372177616520D+00 -.837034865862D-08
     .359657838335D-09  .100000000000D+01  .185100000000D+04  .000000000000D+00
     .240000000000D+01  .000000000000D+00 -.107102096081D-07  .620000000000D+02
     .482406000000D+06  .400000000000D+01
 6 15  7  3 16  0  0.0  .834092497826D-05  .841282599140D-11  .000000000000D+00
     .360000000000D+02 -.461562500000D+02  .413552940426D-08  .500859359351D+00
    -.240467488766D-05  .134040717967D-03  .130813568830D-04  .515378592873D+04
     .489600000000D+06  .409781932831D-07 -.256401982023D+01  .633299350739D-07
     .962577293654D+00  .128218750000D+03 -.302579803554D+01 -.775175146299D-08
     .355371945525D-09  .100000000000D+01  .185100000000D+04  .000000000000D+00
     .240000000000D+01  .000000000000D+00  .419095158577D-08  .360000000000D+02
     .482406000000D+06  .400000000000D+01
 7 15  7  3 16  0  0.0  .472367275506D-03  .216004991671D-11  .000000000000D+00
     .470000000000D+02  .109562500000D+03  .411124267833D-08 -.199710033669D+01
     .536069273949D-05  .860681070480D-02  .108908861876D-04  .515371228981D+04
     .489600000000D+06  .856816768646D-07  .604195556382D+00 -.109896063805D-06
     .970219557219D+00  .176187500000D+03 -.274313203581D+01 -.769710632966D-08
     .184650548579D-09  .100000000000D+01  .185100000000D+04  .000000000000D+00
     .240000000000D+01  .000000000000D+00 -.111758708954D-07  .470000000000D+02
     .482406000000D+06  .400000000000D+01
 9 15  7  3 16  0  0.0 -.412855297327D-05 -.329691829393D-11  .000000000000D+00
     .250000000000D+02 -.264687500000D+02  .468233789531D-08 -.529693992567D-01
    -.136345624924D-05  .438347808085D-03  .817514955997D-05  .515377803040D+04
     .489600000000D+06  .372529029846D-08 -.471843477901D+00  .353902578354D-07
     .957218311665D+00  .216187500000D+03  .273379003552D+01 -.805569269479D-08
    -.490377569051D-09  .100000000000D+01  .185100000000D+04  .000000000000D+00
     .240000000000D+01  .000000000000D+00  .465661287308D-09  .250000000000D+02
     .482406000000D+06  .400000000000D+01
10 15  7  3 16  0  0.0 -.181168783456D-03 -.136424205266D-11  .000000000000D+00
     .760000000000D+02  .295625000000D+02  .535415159333D-08  .191613627374D+01
     .134482979774D-05  .148027874529D-01  .553019344807D-05  .515368274117D+04
     .489600000000D+06 -.223517417908D-06 -.150744490807D+01 -.244006514549D-06
     .940756985436D+00  .263875000000D+03  .936684755468D+00 -.846463830045D-08
     .397873715894D-09  .100000000000D+01  .185100000000D+04  .000000000000D+00
     .340000000000D+01  .000000000000D+00 -.279396772385D-08  .760000000000D+02
     .482406000000D+06  .400000000000D+01
11 15  7  3 16  0  0.0 -.589040108025D-03 -.250111042988D-11  .000000000000D+00
     .890000000000D+02 -.798437500000D+02  .560594779594D-08 -.194054992902D+01
    -.415742397308D-05  .159442794975D-01  .111535191536D-04  .515374566460D+04
     .489600000000D+06  .357627868652D-06 -.290877700352D+01  .137835741043D-06
     .893907442102D+00  .124656250000D+03  .141801301885D+01 -.824748639806D-08
    -.375015620906D-10  .100000000000D+01  .185100000000D+04  .000000000000D+00
     .340000000000D+01  .000000000000D+00 -.121071934700D-07  .890000000000D+02
     .482406000000D+06  .400000000000D+01
12 15  7  3 16  0  0.0  .306764151901D-03  .329691829393D-11  .000000000000D+00
     .270000000000D+02  .686562500000D+02  .433910931275D-08 -.254938598443D+01
     .355765223503D-05  .558498827741D-02  .138767063618D-05  .515365447998D+04
     .489600000000D+06  .558793544769D-07  .167390777865D+01 -.219792127609D-06
     .989569504433D+00  .365500000000D+03  .630553489770D+00 -.828677374882D-08
     .258582199558D-09  .100000000000D+01  .185100000000D+04  .000000000000D+00
     .240000000000D+01  .000000000000D+00 -.121071934700D-07  .270000000000D+02
     .482406000000D+06  .400000000000D+01
13 15  7  3 16  0  0.0 -.128901563585D-03 -.341060513165D-11  .000000000000D+00
     .290000000000D+02 -.193437500000D+02  .428732144129D-08 -.123306174716D+01
    -.105984508991D-05  .494994700421D-02  .961869955063D-05  .515368069839D+04
     .489600000000D+06 -.465661287308D-07 -.356206010896D+00 -.428408384323D-07
     .974001553017D+00  .204593750000D+03  .209728267252D+01 -.787747098543D-08
    -.563594904561D-09  .100000000000D+01  .185100000000D+04  .000000000000D+00
     .240000000000D+01  .000000000000D+00 -.111758708954D-07  .290000000000D+02
     .482406000000D+06  .400000000000D+01
14 15  7  3 16  0  0.0  .515850260854D-04 -.272848410532D-11  .000000000000D+00
     .730000000000D+02 -.272500000000D+02  .450875923649D-08  .705944697956D+00
    -.154785811901D-05  .831143383402D-02  .869110226631D-05  .515361273384D+04
     .489600000000D+06 -.145286321640D-06 -.391039001761D+00 -.391155481339D-07
     .966463345352D+00  .214125000000D+03 -.197343208644D+01 -.807247910830D-08
    -.600739308918D-09  .100000000000D+01  .185100000000D+04  .000000000000D+00
     .240000000000D+01  .000000000000D+00 -.931322574615D-08  .730000000000D+02
     .482406000000D+06  .400000000000D+01
15 15  7  3 16  0  0.0 -.258424784988D-03 -.216004991671D-11  .000000000000D+00
     .700000000000D+01 -.350312500000D+02  .538200989660D-08  .474150416325D-01
    -.172108411789D-05  .720192678273D-02  .750087201595D-05  .515366176605D+04
     .489600000000D+06  .128522515297D-06 -.516326268479D+00  .521540641785D-07
     .933027827463D+00  .219843750000D+03  .391447859569D+00 -.851856911831D-08
    -.520735976458D-09  .100000000000D+01  .185100000000D+04  .000000000000D+00
     .240000000000D+01  .000000000000D+00 -.107102096081D-07  .700000000000D+01
     .482406000000D+06  .400000000000D+01
16 15  7  3 16  0  0.0 -.112453475595D-03  .397903932026D-11  .000000000000D+00
     .200000000000D+02  .545312500000D+02  .432660879205D-08  .168985208476D+01
     .303983688354D-05  .814177875873D-02  .179000198841D-05  .515358061790D+04
     .489600000000D+06 -.260770320892D-07  .169260727298D+01  .247731804848D-06
     .990111256645D+00  .362062500000D+03  .319658121627D+00 -.829891711178D-08
     .115719105880D-09  .100000000000D+01  .185100000000D+04  .000000000000D+00
     .240000000000D+01  .000000000000D+00 -.102445483208D-07  .200000000000D+02
     .482406000000D+06  .400000000000D+01
17 15  7  3 16  0  0.0 -.178572721779D-03 -.159161572810D-11  .000000000000D+00
     .660000000000D+02 -.137781250000D+03  .438161108312D-08  .717789635505D+00
    -.708550214767D-05  .101378400577D-01  .606663525105D-05  .515379041481D+04
     .489600000000D+06 -.108033418655D-06  .271900358811D+01  .987201929092D-07
     .973112435296D+00  .273031250000D+03 -.200952237932D+01 -.833213278106D-08
    -.555380276675D-09  .100000000000D+01  .185100000000D+04  .000000000000D+00
     .240000000000D+01  .000000000000D+00 -.107102096081D-07  .660000000000D+02
     .482406000000D+06  .400000000000D+01
18 15  7  3 16  0  0.0  .414297915995D-03  .306954461848D-11  .000000000000D+00
     .220000000000D+02  .306562500000D+02  .551094383865D-08  .226909560128D+01
     .143423676491D-05  .163452582201D-01  .555813312531D-05  .515360505295D+04
     .489600000000D+06  .119209289551D-06 -.153629402856D+01 -.311061739922D-06
     .924557723426D+00  .249906250000D+03 -.195108636096D+01 -.832570394184D-08
     .443947063606D-09  .100000000000D+01  .185100000000D+04  .000000000000D+00
     .240000000000D+01  .000000000000D+00 -.111758708954D-07  .220000000000D+02
     .482406000000D+06  .400000000000D+01
19 15  7  3 16  0  0.0 -.514973420650D-03 -.102318153949D-11  .000000000000D+00
     .130000000000D+02 -.123375000000D+03  .440268338944D-08 -.835320591027D-01
    -.647641718388D-05  .115455895429D-01  .580959022045D-05  .515374790955D+04
     .489600000000D+06  .186264514923D-07  .276847685746D+01  .117346644402D-06
     .970218198168D+00  .268656250000D+03  .573902036889D+00 -.830213153139D-08
    -.472162524607D-09  .100000000000D+01  .185100000000D+04  .000000000000D+00
     .240000000000D+01  .000000000000D+00 -.153668224812D-07  .130000000000D+02
     .482406000000D+06  .400000000000D+01
